QIANFAN-41              
1 62242U 24232F   26010.94345795  .00000039  00000+0  42201-4 0  9998
2 62242  89.0002  38.2478 0015910 105.5174 254.7736 13.50982480103196
QIANFAN-42              
1 62243U 24232G   26010.99465087  .00000133  00000+0  51017-4 0  9991
2 62243  88.9995  34.0121 0014647 357.8888   2.2240 14.24505660105534
QIANFAN-43              
1 62244U 24232H   26010.93932331  .00000040  00000+0  43609-4 0  9992
2 62244  89.0006  38.3148 0017387 110.3276 249.9745 13.50981458 71806
QIANFAN-44              
1 62245U 24232J   26011.00104575  .00000022  00000+0  15978-4 0  9991
2 62245  89.0004  38.1188 0015629 107.3459 252.9403 13.50983700103288
QIANFAN-45              
1 62246U 24232K   26010.89411746  .00000036  00000+0  36721-4 0  9993
2 62246  89.0008  38.2772 0016295 107.3732 252.9203 13.50979722103194
QIANFAN-46              
1 62247U 24232L   26010.99282337  .00000056  00000+0  68103-4 0  9998
2 62247  89.0004  38.3351 0016290 112.0001 248.2883 13.50981725103167
QIANFAN-47              
1 62248U 24232M   26010.99697629  .00000029  00000+0  25822-4 0  9994
2 62248  89.0000  38.2664 0016735 111.2956 248.9984 13.50981807103197
QIANFAN-48              
1 62249U 24232N   26010.88583249  .00000030  00000+0  28327-4 0  9990
2 62249  89.0004  38.2807 0018953 114.2022 246.1113 13.50983324103181
